{
  "type": "FeatureCollection",
  "features": [
    {
      "type": "Feature",
      "properties": {
        "norad_id": 28890,
        "name": "BEIJING 1",
        "group": "dmc",
        "lat": 78.07363745136179,
        "lon": -9.802034460574061,
        "alt_km": 663.8568069116754,
        "timestamp": "2025-12-25T03:55:55.973716+00:00",
        "meta_object_name": "BEIJING 1",
        "meta_object_id": "2005-043A",
        "meta_epoch": "2025-12-24T20:55:11.736768",
        "meta_mean_motion": 14.63377441,
        "meta_eccentricity": 0.0015831,
        "meta_inclination": 98.2664,
        "meta_ra_of_asc_node": 126.4082,
        "meta_arg_of_pericenter": 105.5482,
        "meta_mean_anomaly": 254.7468,
        "meta_ephemeris_type": 0,
        "meta_classification_type": "U",
        "meta_norad_cat_id": 28890,
        "meta_element_set_no": 999,
        "meta_rev_at_epoch": 7515,
        "meta_bstar": 0.00012593,
        "meta_mean_motion_dot": 6.03e-06,
        "meta_mean_motion_ddot": 0,
        "tle_line1": "1 28890U 05043A   25358.87166362  .00000603  00000+0  12593-3 0  9992",
        "tle_line2": "2 28890  98.2664 126.4082 0015831 105.5482 254.7468 14.63377441 75154"
      },
      "geometry": {
        "type": "Point",
        "coordinates": [
          -9.802034460574061,
          78.07363745136179
        ]
      }
    },
    {
      "type": "Feature",
      "properties": {
        "norad_id": 33320,
        "name": "HUANJING 1A (HJ-1A)",
        "group": "dmc",
        "lat": -58.89049207711696,
        "lon": -0.17881332323032167,
        "alt_km": 617.8090242647659,
        "timestamp": "2025-12-25T03:55:55.973742+00:00",
        "meta_object_name": "HUANJING 1A (HJ-1A)",
        "meta_object_id": "2008-041A",
        "meta_epoch": "2025-12-24T21:43:29.358624",
        "meta_mean_motion": 14.83429214,
        "meta_eccentricity": 0.0019219,
        "meta_inclination": 97.6549,
        "meta_ra_of_asc_node": 346.6956,
        "meta_arg_of_pericenter": 355.5521,
        "meta_mean_anomaly": 4.5519,
        "meta_ephemeris_type": 0,
        "meta_classification_type": "U",
        "meta_norad_cat_id": 33320,
        "meta_element_set_no": 999,
        "meta_rev_at_epoch": 93256,
        "meta_bstar": 0.00014105,
        "meta_mean_motion_dot": 1.11e-05,
        "meta_mean_motion_ddot": 0,
        "tle_line1": "1 33320U 08041A   25358.90520091  .00001110  00000+0  14105-3 0  9999",
        "tle_line2": "2 33320  97.6549 346.6956 0019219 355.5521   4.5519 14.83429214932567"
      },
      "geometry": {
        "type": "Point",
        "coordinates": [
          -0.17881332323032167,
          -58.89049207711696
        ]
      }
    },
    {
      "type": "Feature",
      "properties": {
        "norad_id": 33321,
        "name": "HUANJING 1B (HJ-1B)",
        "group": "dmc",
        "lat": 43.17053301174426,
        "lon": 177.84213160212323,
        "alt_km": 621.2250182479984,
        "timestamp": "2025-12-25T03:55:55.973757+00:00",
        "meta_object_name": "HUANJING 1B (HJ-1B)",
        "meta_object_id": "2008-041B",
        "meta_epoch": "2025-12-24T20:50:41.493984",
        "meta_mean_motion": 14.82851635,
        "meta_eccentricity": 0.0037699,
        "meta_inclination": 97.6405,
        "meta_ra_of_asc_node": 350.3255,
        "meta_arg_of_pericenter": 37.3201,
        "meta_mean_anomaly": 323.0621,
        "meta_ephemeris_type": 0,
        "meta_classification_type": "U",
        "meta_norad_cat_id": 33321,
        "meta_element_set_no": 999,
        "meta_rev_at_epoch": 93257,
        "meta_bstar": 0.0001777,
        "meta_mean_motion_dot": 1.405e-05,
        "meta_mean_motion_ddot": 0,
        "tle_line1": "1 33321U 08041B   25358.86853581  .00001405  00000+0  17770-3 0  9996",
        "tle_line2": "2 33321  97.6405 350.3255 0037699  37.3201 323.0621 14.82851635932574"
      },
      "geometry": {
        "type": "Point",
        "coordinates": [
          177.84213160212323,
          43.17053301174426
        ]
      }
    },
    {
      "type": "Feature",
      "properties": {
        "norad_id": 33446,
        "name": "YAOGAN-4",
        "group": "dmc",
        "lat": 41.20449000516143,
        "lon": -77.85880966975544,
        "alt_km": 622.3580395714562,
        "timestamp": "2025-12-25T03:55:55.973770+00:00",
        "meta_object_name": "YAOGAN-4",
        "meta_object_id": "2008-061A",
        "meta_epoch": "2025-12-24T19:38:47.516928",
        "meta_mean_motion": 14.82716251,
        "meta_eccentricity": 0.0012984,
        "meta_inclination": 97.9197,
        "meta_ra_of_asc_node": 288.8002,
        "meta_arg_of_pericenter": 280.4799,
        "meta_mean_anomaly": 79.4951,
        "meta_ephemeris_type": 0,
        "meta_classification_type": "U",
        "meta_norad_cat_id": 33446,
        "meta_element_set_no": 999,
        "meta_rev_at_epoch": 91982,
        "meta_bstar": 0.00017083,
        "meta_mean_motion_dot": 1.327e-05,
        "meta_mean_motion_ddot": 0,
        "tle_line1": "1 33446U 08061A   25358.81860552  .00001327  00000+0  17083-3 0  9997",
        "tle_line2": "2 33446  97.9197 288.8002 0012984 280.4799  79.4951 14.82716251919826"
      },
      "geometry": {
        "type": "Point",
        "coordinates": [
          -77.85880966975544,
          41.20449000516143
        ]
      }
    },
    {
      "type": "Feature",
      "properties": {
        "norad_id": 35681,
        "name": "DEIMOS-1",
        "group": "dmc",
        "lat": -5.72589924826262,
        "lon": -21.589618624180545,
        "alt_km": 650.0002488435848,
        "timestamp": "2025-12-25T03:55:55.973782+00:00",
        "meta_object_name": "DEIMOS-1",
        "meta_object_id": "2009-041A",
        "meta_epoch": "2025-12-24T20:34:50.691360",
        "meta_mean_motion": 14.74969781,
        "meta_eccentricity": 0.000247,
        "meta_inclination": 97.7155,
        "meta_ra_of_asc_node": 158.8973,
        "meta_arg_of_pericenter": 60.6805,
        "meta_mean_anomaly": 299.4651,
        "meta_ephemeris_type": 0,
        "meta_classification_type": "U",
        "meta_norad_cat_id": 35681,
        "meta_element_set_no": 999,
        "meta_rev_at_epoch": 88118,
        "meta_bstar": 8.8991e-05,
        "meta_mean_motion_dot": 5.51e-06,
        "meta_mean_motion_ddot": 0,
        "tle_line1": "1 35681U 09041A   25358.85753115  .00000551  00000+0  88991-4 0  9994",
        "tle_line2": "2 35681  97.7155 158.8973 0002470  60.6805 299.4651 14.74969781881186"
      },
      "geometry": {
        "type": "Point",
        "coordinates": [
          -21.589618624180545,
          -5.72589924826262
        ]
      }
    },
    {
      "type": "Feature",
      "properties": {
        "norad_id": 35683,
        "name": "UK-DMC 2",
        "group": "dmc",
        "lat": -50.33692076066563,
        "lon": -55.870743130183946,
        "alt_km": 650.8768620098872,
        "timestamp": "2025-12-25T03:55:55.973793+00:00",
        "meta_object_name": "UK-DMC 2",
        "meta_object_id": "2009-041C",
        "meta_epoch": "2025-12-24T20:22:46.053696",
        "meta_mean_motion": 14.7564637,
        "meta_eccentricity": 0.0001572,
        "meta_inclination": 97.8573,
        "meta_ra_of_asc_node": 133.411,
        "meta_arg_of_pericenter": 91.0893,
        "meta_mean_anomaly": 269.0497,
        "meta_ephemeris_type": 0,
        "meta_classification_type": "U",
        "meta_norad_cat_id": 35683,
        "meta_element_set_no": 999,
        "meta_rev_at_epoch": 88085,
        "meta_bstar": 0.00014794,
        "meta_mean_motion_dot": 9.61e-06,
        "meta_mean_motion_ddot": 0,
        "tle_line1": "1 35683U 09041C   25358.84914414  .00000961  00000+0  14794-3 0  9990",
        "tle_line2": "2 35683  97.8573 133.4110 0001572  91.0893 269.0497 14.75646370880853"
      },
      "geometry": {
        "type": "Point",
        "coordinates": [
          -55.870743130183946,
          -50.33692076066563
        ]
      }
    },
    {
      "type": "Feature",
      "properties": {
        "norad_id": 40715,
        "name": "DMC3-FM1",
        "group": "dmc",
        "lat": -1.967911759682837,
        "lon": -133.83140653030975,
        "alt_km": 615.3380996352253,
        "timestamp": "2025-12-25T03:55:55.973804+00:00",
        "meta_object_name": "DMC3-FM1",
        "meta_object_id": "2015-032A",
        "meta_epoch": "2025-12-24T21:28:28.216128",
        "meta_mean_motion": 14.8545977,
        "meta_eccentricity": 0.0004053,
        "meta_inclination": 97.6681,
        "meta_ra_of_asc_node": 225.6442,
        "meta_arg_of_pericenter": 270.8786,
        "meta_mean_anomaly": 89.1965,
        "meta_ephemeris_type": 0,
        "meta_classification_type": "U",
        "meta_norad_cat_id": 40715,
        "meta_element_set_no": 999,
        "meta_rev_at_epoch": 56403,
        "meta_bstar": 6.9107e-05,
        "meta_mean_motion_dot": 5.44e-06,
        "meta_mean_motion_ddot": 0,
        "tle_line1": "1 40715U 15032A   25358.89477102  .00000544  00000+0  69107-4 0  9998",
        "tle_line2": "2 40715  97.6681 225.6442 0004053 270.8786  89.1965 14.85459770564037"
      },
      "geometry": {
        "type": "Point",
        "coordinates": [
          -133.83140653030975,
          -1.967911759682837
        ]
      }
    },
    {
      "type": "Feature",
      "properties": {
        "norad_id": 40716,
        "name": "DMC3-FM2",
        "group": "dmc",
        "lat": -57.15937527834615,
        "lon": 35.29865834653195,
        "alt_km": 616.6974179441659,
        "timestamp": "2025-12-25T03:55:55.973815+00:00",
        "meta_object_name": "DMC3-FM2",
        "meta_object_id": "2015-032B",
        "meta_epoch": "2025-12-24T22:00:50.641920",
        "meta_mean_motion": 14.85461431,
        "meta_eccentricity": 0.0004642,
        "meta_inclination": 97.6737,
        "meta_ra_of_asc_node": 227.1182,
        "meta_arg_of_pericenter": 277.1524,
        "meta_mean_anomaly": 82.9164,
        "meta_ephemeris_type": 0,
        "meta_classification_type": "U",
        "meta_norad_cat_id": 40716,
        "meta_element_set_no": 999,
        "meta_rev_at_epoch": 56403,
        "meta_bstar": 0.00011533,
        "meta_mean_motion_dot": 9.43e-06,
        "meta_mean_motion_ddot": 0,
        "tle_line1": "1 40716U 15032B   25358.91725280  .00000943  00000+0  11533-3 0  9997",
        "tle_line2": "2 40716  97.6737 227.1182 0004642 277.1524  82.9164 14.85461431564031"
      },
      "geometry": {
        "type": "Point",
        "coordinates": [
          35.29865834653195,
          -57.15937527834615
        ]
      }
    },
    {
      "type": "Feature",
      "properties": {
        "norad_id": 40717,
        "name": "DMC3-FM3",
        "group": "dmc",
        "lat": 57.350423830024255,
        "lon": 61.15358845431883,
        "alt_km": 609.172587527959,
        "timestamp": "2025-12-25T03:55:55.973826+00:00",
        "meta_object_name": "DMC3-FM3",
        "meta_object_id": "2015-032C",
        "meta_epoch": "2025-12-24T19:18:08.248032",
        "meta_mean_motion": 14.85448301,
        "meta_eccentricity": 0.0003911,
        "meta_inclination": 97.6793,
        "meta_ra_of_asc_node": 228.6504,
        "meta_arg_of_pericenter": 278.544,
        "meta_mean_anomaly": 81.5332,
        "meta_ephemeris_type": 0,
        "meta_classification_type": "U",
        "meta_norad_cat_id": 40717,
        "meta_element_set_no": 999,
        "meta_rev_at_epoch": 56402,
        "meta_bstar": 0.00015509,
        "meta_mean_motion_dot": 1.286e-05,
        "meta_mean_motion_ddot": 0,
        "tle_line1": "1 40717U 15032C   25358.80426213  .00001286  00000+0  15509-3 0  9998",
        "tle_line2": "2 40717  97.6793 228.6504 0003911 278.5440  81.5332 14.85448301564020"
      },
      "geometry": {
        "type": "Point",
        "coordinates": [
          61.15358845431883,
          57.350423830024255
        ]
      }
    }
  ]
}